{
  "type": "FeatureCollection",
  "features": [
    {
      "type": "Feature",
      "properties": {
        "norad_id": 37781,
        "name": "HAIYANG-2A",
        "group": "resource",
        "lat": -30.07352692915783,
        "lon": 158.9991751104115,
        "alt_km": 974.5384497164832,
        "timestamp": "2025-12-09T11:33:54.457199+00:00",
        "meta_object_name": "HAIYANG-2A",
        "meta_object_id": "2011-043A",
        "meta_epoch": "2025-12-09T03:34:54.633216",
        "meta_mean_motion": 13.78834016,
        "meta_eccentricity": 0.0001672,
        "meta_inclination": 99.3373,
        "meta_ra_of_asc_node": 344.1386,
        "meta_arg_of_pericenter": 87.8376,
        "meta_mean_anomaly": 272.2967,
        "meta_ephemeris_type": 0,
        "meta_classification_type": "U",
        "meta_norad_cat_id": 37781,
        "meta_element_set_no": 999,
        "meta_rev_at_epoch": 72049,
        "meta_bstar": -0.00013558,
        "meta_mean_motion_dot": -1.82e-06,
        "meta_mean_motion_ddot": 0,
        "tle_line1": "1 37781U 11043A   25343.14924344 -.00000182  00000+0 -13558-3 0  9990",
        "tle_line2": "2 37781  99.3373 344.1386 0001672  87.8376 272.2967 13.78834016720494"
      },
      "geometry": {
        "type": "Point",
        "coordinates": [
          158.9991751104115,
          -30.07352692915783
        ]
      }
    },
    {
      "type": "Feature",
      "properties": {
        "norad_id": 37791,
        "name": "RASAT",
        "group": "resource",
        "lat": 3.7481897851454584,
        "lon": 72.25576476260133,
        "alt_km": 665.1538427155256,
        "timestamp": "2025-12-09T11:33:54.457209+00:00",
        "meta_object_name": "RASAT",
        "meta_object_id": "2011-044D",
        "meta_epoch": "2025-12-09T05:14:39.829920",
        "meta_mean_motion": 14.67900847,
        "meta_eccentricity": 0.0021939,
        "meta_inclination": 98.0655,
        "meta_ra_of_asc_node": 72.5286,
        "meta_arg_of_pericenter": 75.5197,
        "meta_mean_anomaly": 337.7265,
        "meta_ephemeris_type": 0,
        "meta_classification_type": "U",
        "meta_norad_cat_id": 37791,
        "meta_element_set_no": 999,
        "meta_rev_at_epoch": 76531,
        "meta_bstar": 0.00012436,
        "meta_mean_motion_dot": 6.65e-06,
        "meta_mean_motion_ddot": 0,
        "tle_line1": "1 37791U 11044D   25343.21851655  .00000665  00000+0  12436-3 0  9992",
        "tle_line2": "2 37791  98.0655  72.5286 0021939  75.5197 337.7265 14.67900847765311"
      },
      "geometry": {
        "type": "Point",
        "coordinates": [
          72.25576476260133,
          3.7481897851454584
        ]
      }
    },
    {
      "type": "Feature",
      "properties": {
        "norad_id": 37841,
        "name": "SRMSAT",
        "group": "resource",
        "lat": 13.738504608490793,
        "lon": 169.9893655072234,
        "alt_km": 855.0106647313796,
        "timestamp": "2025-12-09T11:33:54.457219+00:00",
        "meta_object_name": "SRMSAT",
        "meta_object_id": "2011-058D",
        "meta_epoch": "2025-12-08T18:35:17.755584",
        "meta_mean_motion": 14.11509665,
        "meta_eccentricity": 0.00117062,
        "meta_inclination": 19.9702,
        "meta_ra_of_asc_node": 131.9502,
        "meta_arg_of_pericenter": 269.448,
        "meta_mean_anomaly": 132.3331,
        "meta_ephemeris_type": 0,
        "meta_classification_type": "U",
        "meta_norad_cat_id": 37841,
        "meta_element_set_no": 999,
        "meta_rev_at_epoch": 73088,
        "meta_bstar": 0.00016661288,
        "meta_mean_motion_dot": 5.72e-06,
        "meta_mean_motion_ddot": 0,
        "tle_line1": "1 37841U 11058D   25342.77451106  .00000572  00000+0  16661-3 0  9991",
        "tle_line2": "2 37841  19.9702 131.9502 0011706 269.4480 132.3331 14.11509665730882"
      },
      "geometry": {
        "type": "Point",
        "coordinates": [
          169.9893655072234,
          13.738504608490793
        ]
      }
    },
    {
      "type": "Feature",
      "properties": {
        "norad_id": 38012,
        "name": "PLEIADES 1A",
        "group": "resource",
        "lat": -81.71329885398276,
        "lon": 155.21692943269207,
        "alt_km": 706.0957796455214,
        "timestamp": "2025-12-09T11:33:54.457230+00:00",
        "meta_object_name": "PLEIADES 1A",
        "meta_object_id": "2011-076F",
        "meta_epoch": "2025-12-09T05:41:54.998304",
        "meta_mean_motion": 14.58555618,
        "meta_eccentricity": 0.0001327,
        "meta_inclination": 98.1826,
        "meta_ra_of_asc_node": 56.06,
        "meta_arg_of_pericenter": 74.454,
        "meta_mean_anomaly": 351.5316,
        "meta_ephemeris_type": 0,
        "meta_classification_type": "U",
        "meta_norad_cat_id": 38012,
        "meta_element_set_no": 999,
        "meta_rev_at_epoch": 74430,
        "meta_bstar": 0.0001075,
        "meta_mean_motion_dot": 4.54e-06,
        "meta_mean_motion_ddot": 0,
        "tle_line1": "1 38012U 11076F   25343.23744211  .00000454  00000+0  10750-3 0  9998",
        "tle_line2": "2 38012  98.1826  56.0600 0001327  74.4540 351.5316 14.58555618744304"
      },
      "geometry": {
        "type": "Point",
        "coordinates": [
          155.21692943269207,
          -81.71329885398276
        ]
      }
    },
    {
      "type": "Feature",
      "properties": {
        "norad_id": 38038,
        "name": "ZIYUAN 1-02C (ZY 1-02C)",
        "group": "resource",
        "lat": 56.04713312776645,
        "lon": 36.82624629905913,
        "alt_km": 759.7281612979632,
        "timestamp": "2025-12-09T11:33:54.457240+00:00",
        "meta_object_name": "ZIYUAN 1-02C (ZY 1-02C)",
        "meta_object_id": "2011-079A",
        "meta_epoch": "2025-12-09T05:03:18.921888",
        "meta_mean_motion": 14.38005577,
        "meta_eccentricity": 0.0007007,
        "meta_inclination": 98.4335,
        "meta_ra_of_asc_node": 49.2893,
        "meta_arg_of_pericenter": 148.0042,
        "meta_mean_anomaly": 305.7516,
        "meta_ephemeris_type": 0,
        "meta_classification_type": "U",
        "meta_norad_cat_id": 38038,
        "meta_element_set_no": 999,
        "meta_rev_at_epoch": 73190,
        "meta_bstar": 0.0002043,
        "meta_mean_motion_dot": 5.75e-06,
        "meta_mean_motion_ddot": 0,
        "tle_line1": "1 38038U 11079A   25343.21063567  .00000575  00000+0  20430-3 0  9995",
        "tle_line2": "2 38038  98.4335  49.2893 0007007 148.0042 305.7516 14.38005577731901"
      },
      "geometry": {
        "type": "Point",
        "coordinates": [
          36.82624629905913,
          56.04713312776645
        ]
      }
    },
    {
      "type": "Feature",
      "properties": {
        "norad_id": 38046,
        "name": "ZIYUAN 3-1 (ZY 3-1)",
        "group": "resource",
        "lat": 51.66914600888956,
        "lon": -121.00685983181624,
        "alt_km": 360.80252051529806,
        "timestamp": "2025-12-09T11:33:54.457250+00:00",
        "meta_object_name": "ZIYUAN 3-1 (ZY 3-1)",
        "meta_object_id": "2012-001A",
        "meta_epoch": "2025-12-09T04:53:43.908288",
        "meta_mean_motion": 15.67873953,
        "meta_eccentricity": 0.0001916,
        "meta_inclination": 97.1752,
        "meta_ra_of_asc_node": 49.5402,
        "meta_arg_of_pericenter": 8.7664,
        "meta_mean_anomaly": 351.3631,
        "meta_ephemeris_type": 0,
        "meta_classification_type": "U",
        "meta_norad_cat_id": 38046,
        "meta_element_set_no": 999,
        "meta_rev_at_epoch": 77441,
        "meta_bstar": 0.00073514,
        "meta_mean_motion_dot": 0.00081396,
        "meta_mean_motion_ddot": 0,
        "tle_line1": "1 38046U 12001A   25343.20398042  .00081396  00000+0  73514-3 0  9999",
        "tle_line2": "2 38046  97.1752  49.5402 0001916   8.7664 351.3631 15.67873953774415"
      },
      "geometry": {
        "type": "Point",
        "coordinates": [
          -121.00685983181624,
          51.66914600888956
        ]
      }
    },
    {
      "type": "Feature",
      "properties": {
        "norad_id": 38338,
        "name": "ARIRANG-3 (KOMPSAT-3)",
        "group": "resource",
        "lat": 49.95964253473771,
        "lon": 128.09035117113243,
        "alt_km": 686.1261096994776,
        "timestamp": "2025-12-09T11:33:54.457261+00:00",
        "meta_object_name": "ARIRANG-3 (KOMPSAT-3)",
        "meta_object_id": "2012-025B",
        "meta_epoch": "2025-12-09T04:24:16.096896",
        "meta_mean_motion": 14.61704773,
        "meta_eccentricity": 0.0005609,
        "meta_inclination": 98.3317,
        "meta_ra_of_asc_node": 297.7462,
        "meta_arg_of_pericenter": 350.4949,
        "meta_mean_anomaly": 9.6145,
        "meta_ephemeris_type": 0,
        "meta_classification_type": "U",
        "meta_norad_cat_id": 38338,
        "meta_element_set_no": 999,
        "meta_rev_at_epoch": 72358,
        "meta_bstar": 0.00020012,
        "meta_mean_motion_dot": 9.48e-06,
        "meta_mean_motion_ddot": 0,
        "tle_line1": "1 38338U 12025B   25343.18351964  .00000948  00000+0  20012-3 0  9997",
        "tle_line2": "2 38338  98.3317 297.7462 0005609 350.4949   9.6145 14.61704773723589"
      },
      "geometry": {
        "type": "Point",
        "coordinates": [
          128.09035117113243,
          49.95964253473771
        ]
      }
    }
  ]
}